ESTCUBE 1               
1 39161U 13021C   22086.69514706  .00000677  00000+0  11360-3 0  9996
2 39161  97.9118 166.0567 0008790 331.1602  28.9113 14.72742677477434
FENGYUN 3C              
1 39260U 13052A   22086.22756352  .00000039  00000+0  40537-4 0  9995
2 39260  98.4645 118.4665 0011816 146.5424 213.6501 14.15906832440287
CASSIOPE                
1 39265U 13055A   22086.52516452  .00009894  00000+0  26926-3 0  9994
2 39265  80.9695 354.0854 0631421 200.6056 156.8608 14.36425494440564
ZACUBE-1 (TSHEPISOSAT)  
1 39417U 13066B   22086.47758711  .00001758  00000+0  22208-3 0  9995
2 39417  97.6287  61.7347 0057004 314.6507  45.0067 14.81983976450989
CINEMA-3 (KHUSAT-2)     
1 39426U 13066L   22086.40035814  .00000630  00000+0  10463-3 0  9998
2 39426  97.7915  29.9458 0104590 138.0912 222.8360 14.69938551447216
TRITON-1                
1 39427U 13066M   22086.79090685  .00000887  00000+0  14654-3 0  9998
2 39427  97.8072  26.1891 0112820 164.9500 195.5110 14.68632059446983
DELFI-N3XT              
1 39428U 13066N   22086.44403559  .00001418  00000+0  22725-3 0  9998
2 39428  97.8092  24.3892 0118279 179.2726 180.8674 14.68645192446490
GOMX-1                  
1 39430U 13066Q   22086.83415535  .00001103  00000+0  20646-3 0  9992
2 39430  97.8132 358.6875 0148729 302.5962  56.0984 14.59955548444381
BRITE-PL1 (LEM)         
1 39431U 13066R   22086.51658606  .00000312  00000+0  75509-4 0  9996
2 39431  97.7129 307.4592 0202947 122.3407 239.7615 14.47265020440518
ICUBE-1                 
1 39432U 13066S   22086.54552462  .00001734  00000+0  17704-3 0  9994
2 39432  97.4704  94.5933 0031536 174.9597 185.1946 14.91480940452495
HUMSAT-D                
1 39433U 13066T   22086.50901574  .00002929  00000+0  27952-3 0  9996
2 39433  97.4552 102.0330 0030819 151.2606 209.0321 14.93689943452988
VELOX-PII               
1 39438U 13066Y   22086.48947568  .00001656  00000+0  22410-3 0  9991
2 39438  97.6832  52.7886 0070053   4.8987 355.2895 14.78596724448894
FIRST-MOVE              
1 39439U 13066Z   22086.47632288  .00003895  00000+0  46392-3 0  9993
2 39439  97.6303  63.8579 0062309 310.6747  48.9062 14.83508753449891
CUBEBUG-2 (LO-74)       
1 39440U 13066AA  22086.47523378  .00001810  00000+0  25263-3 0  9993
2 39440  97.7173  47.5396 0080360  38.3440 322.3445 14.76661880448184
NEE-02 KRYSAOR          
1 39441U 13066AB  22086.40942549  .00001207  00000+0  17516-3 0  9994
2 39441  97.7279  44.7051 0082278  51.2678 309.5849 14.75484599447932
FUNCUBE-1 (AO-73)       
1 39444U 13066AE  22086.48448931  .00002290  00000+0  28074-3 0  9995
2 39444  97.6168  64.1381 0055682 303.1467  56.4412 14.82990556449374
HINCUBE                 
1 39445U 13066AF  22086.52567026  .00002107  00000+0  25999-3 0  9998
2 39445  97.6184  64.0061 0055729 305.1736  54.4265 14.82805028449328
UWE-3                   
1 39446U 13066AG  22086.43532718  .00001802  00000+0  23996-3 0  9995
2 39446  97.6767  54.1052 0069152 358.1545   1.9402 14.79221792448333
AIST-1 (RS-41)          
1 39492U 13078C   22086.90473778  .00000589  00000+0  60883-4 0  9999
2 39492  82.4193 314.6474 0020588  20.7387 339.4643 14.88262519447659
SPROUT                  
1 39770U 14029E   22086.60760280  .00003963  00000+0  41902-3 0  9998
2 39770  97.9309 203.1599 0008332   3.5473 356.5886 14.89762383425476
UNISAT-6                
1 40012U 14033C   22086.49183026  .00001012  00000+0  15464-3 0  9995
2 40012  97.6638 278.8361 0058996  65.0864 295.6461 14.74657072417906
BUGSAT-1 (TITA)         
1 40014U 14033E   22086.56178286  .00001251  00000+0  11553-3 0  9997
2 40014  98.1417  81.6603 0030052 310.8107  49.0505 14.96285875423899
DUCHIFAT-1              
1 40021U 14033M   22086.48370613  .00003256  00000+0  32518-3 0  9995
2 40021  98.0043  35.2805 0011477 317.7789  42.2545 14.92182576422474
NANOSATC-BR1            
1 40024U 14033Q   22086.56248754  .00002528  00000+0  26047-3 0  9998
2 40024  97.9781  29.1488 0011102 323.8778  36.1689 14.91140410421777
QB50P1                  
1 40025U 14033R   22086.81310995  .00002290  00000+0  24310-3 0  9991
2 40025  97.9543  23.6354 0011539 333.1431  26.9188 14.90023516422115
DTUSAT-2                
1 40030U 14033W   22086.77050316  .00001944  00000+0  20981-3 0  9995
2 40030  97.9330  19.2595 0011005 329.9564  30.1020 14.89523593421996
QB50P2                  
1 40032U 14033Y   22086.80819959  .00002012  00000+0  21711-3 0  9996
2 40032  97.9337  19.3094 0010958 331.0888  28.9721 14.89490883421986
POLYITAN-1              
1 40042U 14033AJ  22086.55742403  .00002789  00000+0  29513-3 0  9997
2 40042  97.9646  24.4650 0013557 324.3906  35.6406 14.89949065421457
TIGRISAT                
1 40043U 14033AK  22086.81756392  .00000888  00000+0  13592-3 0  9997
2 40043  97.6590 280.4777 0060706  61.6286 299.1027 14.74810906417891
AISAT                   
1 40054U 14034B   22086.46543093  .00002569  00000+0  35409-3 0  9992
2 40054  98.3512 254.6701 0012159 213.4148 146.6296 14.79112142417355
CANX-4                  
1 40055U 14034C   22086.68258623  .00000695  00000+0  11067-3 0  9991
2 40055  98.3437 241.0220 0012981 256.9005 103.0754 14.75262898416697
CANX-5                  
1 40056U 14034D   22086.41747522  .00000645  00000+0  10331-3 0  9992
2 40056  98.3436 240.7305 0013009 258.0310 101.9440 14.75256007407437
VELOX-I                 
1 40057U 14034E   22086.91999752  .00001602  00000+0  22584-3 0  9999
2 40057  98.3574 256.2730 0010038 225.7687 134.2706 14.78709036417424
METEOR-M 2              
1 40069U 14037A   22086.69771859 -.00000035  00000+0  29828-5 0  9996
2 40069  98.4390 108.2054 0005352 187.1104 172.9994 14.20700224400255
DX1                     
1 40071U 14037C   22086.89997393  .00000494  00000+0  70209-4 0  9990
2 40071  98.4219 311.5333 0007579 212.0164 148.0587 14.81709287417260
UKUBE-1                 
1 40074U 14037F   22086.83335696  .00001334  00000+0  16333-3 0  9990
2 40074  98.3951 323.2011 0004048 177.8595 182.2641 14.85028745417956
FIREBIRD 3              
1 40377U 15003B   22086.52077719  .00013266  00000+0  43181-3 0  9993
2 40377  99.1127 293.3292 0106680 302.3492  56.7448 15.26625565395909
FIREBIRD 4              
1 40378U 15003C   22086.55109293  .00012303  00000+0  39986-3 0  9999
2 40378  99.1131 293.5589 0106623 301.9177  57.1719 15.26703609395911
GRIFEX                  
1 40379U 15003D   22086.47765774  .00007975  00000+0  29848-3 0  9998
2 40379  99.1194 280.2214 0120216 341.9543  17.7436 15.21102149395155
CP10 (EXOCUBE)          
1 40380U 15003E   22086.47984753  .00005461  00000+0  21938-3 0  9990
2 40380  99.1251 273.4406 0127158   4.6082 355.6285 15.18338270394710
DEORBITSAIL             
1 40719U 15032E   22086.53823255  .00001775  00000+0  25279-3 0  9990
2 40719  97.7942 327.5787 0014632 271.6026  88.3509 14.77953333361783
NUDT-PHONESAT           
1 40900U 15049B   22086.84011781  .00017337  00000+0  57300-3 0  9998
2 40900  97.4092 104.6251 0009387 204.2402 274.1496 15.31391522362103
XW-2A                   
1 40903U 15049E   22086.82415762  .00015615  00000+0  28153-3 0  9997
2 40903  97.1938 145.3965 0012091  64.0815  46.1690 15.49775475366606
XW-2C                   
1 40906U 15049H   22086.83051220  .00004167  00000+0  20772-3 0  9995
2 40906  97.4958  90.9523 0012172 285.2782 196.7129 15.18043237360534
XW-2D                   
1 40907U 15049J   22086.81903014  .00004822  00000+0  23646-3 0  9992
2 40907  97.4942  90.8614 0011445 280.3513 202.6542 15.18542420360576
LILACSAT-2              
1 40908U 15049K   22086.82269883  .00002373  00000+0  12970-3 0  9990
2 40908  97.5173  88.2514 0013847 303.3805 179.6914 15.15199232360125
XW-2E                   
1 40909U 15049L   22086.85617193  .00007200  00000+0  32045-3 0  9994
2 40909  97.4685  95.2715 0010493 259.1008 221.5662 15.21730427360997
XW-2F                   
1 40910U 15049M   22086.81382811  .00007116  00000+0  32142-3 0  9992
2 40910  97.4761  94.3459 0011545 259.6898 177.5108 15.21217913360760
XW-2B                   
1 40911U 15049N   22086.83818495  .00004699  00000+0  23117-3 0  9992
2 40911  97.4933  91.5063 0011461 282.3460 199.1200 15.18442956360460
KAITUO 1B               
1 40912U 15049P   22086.85307962  .00008068  00000+0  33490-3 0  9996
2 40912  97.4421  98.7465 0012005 222.6690 259.1762 15.24045138361318
TIANWANG 1A (TW-1A)     
1 40928U 15051D   22086.84237358  .00026907  00000+0  43013-3 0  9990
2 40928  97.0508 110.5556 0007267 342.8171 142.6407 15.53105806365546
LAPAN-A2                
1 40931U 15052B   22086.73354667  .00001063  00000+0  58833-4 0  9999
2 40931   5.9972  31.9927 0012802  91.3814 268.8120 14.76756347351243
LQSAT                   
1 40958U 15057A   22086.70218961  .00000207  00000+0  39412-4 0  9997
2 40958  97.7614 136.5343 0016987 220.7076 139.2868 14.73279702347948
ATHENOXAT 1             
1 41168U 15077C   22086.84483918  .00010401  00000+0  45338-3 0  9994
2 41168  14.9874 334.2761 0009630 178.1227 264.2220 15.18533767347870
GALASSIA                
1 41170U 15077E   22086.00781074  .00009600  00000+0  41780-3 0  9995
2 41170  14.9895 330.8694 0011137 192.8634 167.1404 15.18361692347661
VELOX-II                
1 41171U 15077F   22086.48818749  .00007956  00000+0  38433-3 0  9991
2 41171  14.9924  36.5159 0008032  45.0747 315.0225 15.14324160347227
CHUBUSAT-2              
1 41338U 16012B   22086.54889906  .00001703  00000+0  12350-3 0  9990
2 41338  31.0019 185.2621 0013527  60.4893 299.7090 15.00998822335166
CHUBUSAT-3              
1 41339U 16012C   22086.61326876  .00001479  00000+0  10617-3 0  9995
2 41339  31.0101 181.8296 0013131  68.6205 291.5840 15.01107508335175
HORYU-4                 
1 41340U 16012D   22086.88660067  .00003105  00000+0  22053-3 0  9994
2 41340  31.0039 159.8052 0013605 109.4834 250.7273 15.02675932335449
